name,city,address,license,openhour,closehour,state,phone
NorthGate Brewing ,Pittsburgh,Buge Turnpike,39827,16,4,NY,(264) 458-9553
Against the Grain Brewery,Pittsburgh,Hotmir Street,76375,16,1,NY,(472) 868-7362
Jack's Abby Craft Lagers,Boston,Zerjo Parkway,65942,18,3,PA,(533) 516-2257
Mike Hess Brewing Company,Quincy,Kuvako Trail,55190,17,1,PA,(652) 635-5086
Fort Point Beer Company,Newark,Hijem Square,6914,16,1,NJ,(604) 353-3187
COAST Brewing Company,Philadelphia,Mibtol Boulevard,57044,17,4,NY,(341) 500-1445
Great Divide Brewing Company,Quincy,Filsuk Way,19085,18,3,PA,(781) 679-7443
Tapistry Brewing,Philadelphia,Waral Mill,90534,17,1,NY,(278) 755-6392
Big Lake Brewing,Newark,Vukuw Park,42595,18,1,NJ,(202) 427-9922
The Mitten Brewing Company,Newark,Tuki Turnpike,35536,19,1,NJ,(816) 915-8435
Brewery Vivant,Pittsburgh,Zeffeh Terrace,27137,15,3,NY,(405) 460-6351
Petoskey Brewing,Newark,Fice Point,5078,18,3,NJ,(678) 461-3095
Blackrocks Brewery,Boston,Tepe Manor,45258,18,4,PA,(754) 267-4133
Perrin Brewing Company,Philadelphia,Evwi Junction,80220,19,2,NY,(467) 294-6105
Witch's Hat Brewing Company,New York,Husil Mill,59538,15,2,MA,(876) 658-6963
Founders Brewing Company,Boston,Gimtek Trail,6212,16,3,PA,(781) 491-4955
Flat 12 Bierwerks,New York,Cewoc Place,30865,15,2,MA,(585) 885-3799
Tin Man Brewing Company,Pittsburgh,Ibaof Court,55592,16,4,NY,(859) 348-3298
Black Acre Brewing Co.,Newark,Ihoku Loop,79668,15,3,NJ,(481) 807-1881
Brew Link Brewing,Boston,Bivat Lane,58803,18,1,PA,(447) 672-5044
Bare Hands Brewery,New Brunswick,Davir Terrace,79537,16,3,NJ,(337) 296-1360
Three Pints Brewing,Albany,Vibe Circle,35809,16,2,MA,(331) 928-5951
Four Fathers Brewing ,Albany,Jojum Boulevard,33099,17,1,MA,(765) 302-6727
Indiana City Brewing,Pittsburgh,Wohjid Park,92411,18,1,NY,(631) 651-1192
Burn 'Em Brewing,Quincy,Goco Plaza,94315,16,2,PA,(251) 497-2687
Sun King Brewing Company,Philadelphia,Sose View,80971,16,2,NY,(441) 545-8039
Evil Czech Brewery,Boston,Tuvrim Terrace,53029,17,2,PA,(248) 725-3191
450 North Brewing Company,Albany,Eteda Loop,59947,19,2,MA,(936) 278-3635
Taxman Brewing Company,New York,Hebu Path,6122,16,1,MA,(329) 344-2419
Cedar Creek Brewery,New Brunswick,Todles View,4721,16,1,NJ,(285) 229-5342
SanTan Brewing Company,New Brunswick,Giszes Turnpike,33823,17,4,NJ,(460) 503-5319
Boulevard Brewing Company,New York,Ajohoj Boulevard,23332,19,2,MA,(986) 738-5358
James Page Brewing Company,Philadelphia,Juec Ridge,36339,16,2,NY,(637) 282-3716
The Dudes' Brewing Company,Albany,Vabo Terrace,36164,18,1,MA,(970) 225-4535
Ballast Point Brewing Company,Pittsburgh,Mevop Heights,62851,15,4,NY,(488) 720-4728
Anchor Brewing Company,New York,Lopa Circle,86284,17,3,MA,(887) 908-6961
Figueroa Mountain Brewing Company,New Brunswick,Hefek Circle,53722,19,4,NJ,(270) 688-3129
Avery Brewing Company,Philadelphia,Move Mill,46894,15,4,NY,(976) 205-8875
Twisted X Brewing Company,Boston,Okesec Key,78464,16,1,PA,(371) 433-4717
Gonzo's BiggDogg Brewing,Pittsburgh,Oveor Extension,14466,17,4,NY,(218) 754-6168
Big Muddy Brewing,Albany,Itjom Court,14865,17,2,MA,(808) 233-8268
Lost Nation Brewing,Newark,Etpes Street,70974,15,3,NJ,(970) 250-5605
Rising Tide Brewing Company,Quincy,Macina Circle,62363,15,1,PA,(885) 780-9174
Rivertowne Brewing Company,Boston,Laimo River,73557,15,4,PA,(316) 539-1619
Revolution Brewing Company,Quincy,Vowel Road,17341,18,1,PA,(928) 837-8903
Tallgrass Brewing Company,Pittsburgh,Otoluv Trail,78196,19,4,NY,(731) 275-9140
Sixpoint Craft Ales,New Brunswick,Juro Point,61212,18,3,NJ,(317) 577-2434
White Birch Brewing,Pittsburgh,Civo Plaza,56372,18,2,NY,(366) 692-9673
Firestone Walker Brewing Company,Boston,Soli Point,66641,17,1,PA,(406) 726-5157
SweetWater Brewing Company,Newark,Bicpik Square,32471,16,4,NJ,(367) 265-8699
Flying Mouse Brewery,Newark,Nenen Glen,50989,16,2,NJ,(777) 511-7999
Upslope Brewing Company,Albany,Ulesic Circle,13872,15,2,MA,(648) 697-8218
Pipeworks Brewing Company,Quincy,Ufaak Ridge,19740,19,1,PA,(228) 656-4520
Bent Brewstillery,New Brunswick,Jafi Path,51833,19,1,NJ,(858) 258-5508
Flesk Brewing Company,Philadelphia,Ivzi Center,596,15,3,NY,(551) 203-8801
Pollyanna Brewing Company,Albany,Lobpic Plaza,85628,19,1,MA,(349) 550-2299
BuckleDown Brewing,Albany,Zeul Avenue,49955,15,2,MA,(260) 801-5363
Destihl Brewery,Albany,Ujuloh Pike,5661,19,1,MA,(283) 471-6876
Summit Brewing Company,Pittsburgh,Roew Turnpike,17706,19,4,NY,(905) 454-9859
Latitude 42 Brewing Company,Albany,Sueje Mill,39063,17,4,MA,(827) 796-1638
4 Hands Brewing Company,New York,Jowa Junction,5675,18,1,MA,(548) 883-2176
Surly Brewing Company,Philadelphia,Nifo Highway,30096,15,4,NY,(803) 723-3905
Against The Grain Brewery,Boston,Zobzop Way,43908,15,1,PA,(832) 478-9508
Crazy Mountain Brewing Company,New York,Guovu Lane,43414,15,4,MA,(435) 665-3225
SlapShot Brewing Company,New York,Biuwi Center,40069,18,3,MA,(308) 412-2845
Mikerphone Brewing,Albany,Moupe Mill,99256,19,3,MA,(404) 622-9023
Freetail Brewing Company,Boston,Fegeb Way,28952,15,1,PA,(713) 992-2130
3 Daughters Brewing,New Brunswick,Tumlon Circle,79916,15,3,NJ,(566) 948-6552
Red Shedman Farm Brewery and Hop...,Newark,Worrep Path,86552,16,4,NJ,(674) 717-1716
Appalachian Mountain Brewery,Quincy,Sulvo Avenue,7768,17,2,PA,(428) 601-9117
Birdsong Brewing Company,Quincy,Assip Way,2584,16,4,PA,(731) 624-1068
Union Craft Brewing,Pittsburgh,Kewimi Heights,9108,17,2,NY,(811) 424-9859
Atwater Brewery,New York,Wiew Highway,69238,15,1,MA,(519) 293-4806
Ale Asylum,New York,Vipir Square,52251,17,4,MA,(350) 923-6012
Two Brothers Brewing Company,New York,Porfu Highway,67816,17,4,MA,(531) 809-4007
Bent Paddle Brewing Company,Philadelphia,Metow Road,15954,17,2,NY,(712) 438-2905
Bell's Brewery,Newark,Supzec Way,92392,19,3,NJ,(406) 738-2679
Blue Owl Brewing,Boston,Kepaw Glen,76535,18,3,PA,(838) 878-1184
Speakasy Ales & Lagers,Newark,Ejific River,43737,19,2,NJ,(347) 329-1955
Black Tooth Brewing Company,Newark,Nevi Way,49361,16,2,NJ,(826) 671-3346
Hopworks Urban Brewery,Boston,Renop Terrace,28311,17,3,PA,(829) 990-8184
Epic Brewing,Quincy,Vatpon Highway,98301,17,2,PA,(422) 971-6545
New Belgium Brewing Company,Philadelphia,Ivubuf Court,57812,18,4,NY,(929) 384-5190
Sierra Nevada Brewing Company,New Brunswick,Fifis Key,13624,15,3,NJ,(412) 859-8001
Keweenaw Brewing Company,Quincy,Koluju Boulevard,70498,16,3,PA,(906) 600-5482
Brewery Terra Firma,Pittsburgh,Lergez Turnpike,24598,18,3,NY,(303) 977-5435
Grey Sail Brewing Company,Pittsburgh,Abihi Park,65771,17,3,NY,(579) 605-2836
Kirkwood Station Brewing Company,New Brunswick,Vihenu Junction,16242,15,2,NJ,(236) 803-6260
Goose Island Brewing Company,Albany,Dabu Terrace,65541,19,4,MA,(742) 589-8575
Broad Brook Brewing LLC,Boston,Agufo Street,82761,15,4,PA,(821) 954-3651
The Lion Brewery,Boston,Focne Manor,28226,15,1,PA,(836) 602-9347
Madtree Brewing Company,New York,Niwpi Circle,61953,18,1,MA,(712) 608-8416
Jackie O's Pub & Brewery,Pittsburgh,Noala River,1394,15,3,NY,(586) 609-9338
Rhinegeist Brewery,Philadelphia,Pewtej Mill,74926,18,4,NY,(965) 867-5285
Warped Wing Brewing Company,Pittsburgh,Guzis Extension,48607,15,2,NY,(485) 571-9320
Blackrocks Brewery,Newark,Azoda Way,38796,18,3,NJ,(915) 996-6543
Catawba Valley Brewing Company,New Brunswick,Hirwe Boulevard,2451,16,3,NJ,(868) 405-5902
Tr√∂egs Brewing Company,New Brunswick,Fomam Junction,64746,19,3,NJ,(284) 703-8463
Mission Brewery,Newark,Sucet Turnpike,52403,19,2,NJ,(403) 734-1354
Christian Moerlein Brewing Company,Pittsburgh,Ciplaz Point,60393,15,3,NY,(552) 638-4407
West Sixth Brewing,Philadelphia,Zalo Road,48995,16,1,NY,(419) 436-5109
Coastal Extreme Brewing Company,Philadelphia,Fopmo Place,72204,19,2,NY,(855) 669-8615
King Street Brewing Company,Quincy,Tobeh Grove,13194,18,3,PA,(505) 751-3019
Beer Works Brewery,New Brunswick,Piir Heights,70628,17,4,NJ,(263) 530-5232
Lone Tree Brewing Company,Newark,Kibca Turnpike,36341,15,4,NJ,(444) 851-2738
Four String Brewing Company,New York,Ceag Parkway,32177,15,1,MA,(336) 320-7357
Glabrous Brewing Company,Pittsburgh,Horof Parkway,91420,15,2,NY,(632) 586-6302
Bonfire Brewing Company,Pittsburgh,Fulos Loop,87095,19,1,NY,(232) 671-6523
Thomas Hooker Brewing Company,Quincy,Dejaga Highway,59210,19,1,PA,(971) 338-4629
"Woodstock Inn, Station & Brewery",Philadelphia,Mevda Place,32174,17,2,NY,(869) 368-4697
Renegade Brewing Company,Philadelphia,Beava Lane,86880,17,4,NY,(454) 458-2557
Mother Earth Brew Company,Philadelphia,Vajec Park,65516,19,2,NY,(504) 451-2572
Black Market Brewing Company,Pittsburgh,Sevap Manor,27037,17,3,NY,(323) 836-5068
Vault Brewing Company,Albany,Siji Place,49710,19,2,MA,(631) 234-6859
Jailbreak Brewing Company,Boston,Nune Boulevard,19379,17,1,PA,(545) 574-5418
Smartmouth Brewing Company,New Brunswick,Cannic Lane,30431,19,4,NJ,(806) 320-2700
Base Camp Brewing Co.,Philadelphia,Jadaw Avenue,25986,19,3,NY,(664) 971-1847
Alameda Brewing,Quincy,Riihu Lane,71368,18,1,PA,(676) 332-2798
Southern Star Brewing Company,New York,Wokir Glen,59169,16,2,MA,(802) 641-1485
Steamworks Brewing Company,Philadelphia,Utoil Road,88612,15,2,NY,(955) 788-9473
Horny Goat Brew Pub,Boston,Maevi Place,64817,19,2,PA,(302) 999-9119
Cheboygan Brewing Company,Philadelphia,Wecnim Pike,28643,15,2,NY,(509) 580-9497
Center of the Universe Brewing C...,Philadelphia,Sefe Square,31048,15,4,NY,(555) 677-8698
Ipswich Ale Brewery,Boston,Winu Turnpike,94912,15,2,PA,(944) 848-8049
Griffin Claw Brewing Company,Pittsburgh,Baclun Point,49402,18,1,NY,(864) 473-6991
Karbach Brewing Company,Boston,Jevih Ridge,9833,16,4,PA,(880) 766-8326
Uncle Billy's Brewery and Smokeh...,Quincy,Hiif Street,3728,19,4,PA,(320) 771-4306
Deep Ellum Brewing Company,New Brunswick,Wofes Avenue,37784,19,4,NJ,(521) 970-6707
Real Ale Brewing Company,Boston,Udele Road,55801,17,3,PA,(831) 547-8927
Straub Brewery,Boston,Joma Circle,76239,17,3,PA,(676) 589-7638
Shebeen Brewing Company,Albany,Coco Lane,87826,19,1,MA,(989) 565-4000
Stevens Point Brewery,Pittsburgh,Gasde Heights,60110,17,1,NY,(776) 833-4856
Weston Brewing Company,Pittsburgh,Jivaj Loop,71893,18,1,NY,(460) 995-9988
Southern Prohibition Brewing Com...,Philadelphia,Lokar Terrace,30032,17,2,NY,(437) 632-1614
Minhas Craft Brewery,New York,Obawo Point,62513,19,4,MA,(868) 694-8522
Pug Ryan's Brewery,Pittsburgh,Rufci Extension,40365,18,2,NY,(256) 419-3974
Hops & Grains Brewing Company,Boston,Dike Turnpike,99785,16,1,PA,(373) 426-5821
Sietsema Orchards and Cider Mill,Boston,Culi Center,77885,15,3,PA,(610) 400-2751
Summit Brewing Company,Albany,Enoma Street,80806,16,3,MA,(211) 261-5161
Core Brewing & Distilling Company,Quincy,Evha Street,52554,15,2,PA,(688) 662-4987
Independence Brewing Company,Newark,Ahiic Pike,46255,18,2,NJ,(478) 736-3875
Cigar City Brewing Company,Quincy,Hopak Avenue,6461,16,4,PA,(644) 907-2494
Third Street Brewhouse,Quincy,Rurlo Key,48979,16,3,PA,(708) 644-4389
Narragansett Brewing Company,Boston,Benhos Turnpike,21434,17,1,PA,(677) 493-5132
Grimm Brothers Brewhouse,Pittsburgh,Cidseb Square,30270,15,1,NY,(923) 817-9456
Cisco Brewers,Pittsburgh,Varod Point,90955,15,4,NY,(337) 695-9432
Angry Minnow,Boston,Sovlev Junction,16720,17,2,PA,(849) 317-1858
Platform Beer Company,New Brunswick,Sitok Road,82706,17,3,NJ,(755) 880-8723
Odyssey Beerwerks,Pittsburgh,Addub Heights,49825,18,2,NY,(607) 271-6943
Lonerider Brewing Company,Newark,Kodge Avenue,61753,16,3,NJ,(778) 709-9545
Oakshire Brewing,Pittsburgh,Kagute Ridge,38059,15,1,NY,(735) 309-1844
Fort Pitt Brewing Company,New Brunswick,Iraite Place,71133,15,3,NJ,(240) 794-1954
Tin Roof Brewing Company,New York,Rigu Pike,12676,19,1,MA,(349) 686-4823
Three Creeks Brewing,Albany,Zohu River,90547,19,1,MA,(467) 348-9355
2 Towns Ciderhouse,Newark,Legis Court,69503,15,3,NJ,(741) 477-1263
Caldera Brewing Company,Quincy,Upeb Court,18100,15,4,PA,(340) 237-5171
Greenbrier Valley Brewing Company,Pittsburgh,Biczep Center,60153,19,1,NY,(932) 951-3668
Phoenix Ale Brewery,Newark,Lujtol Loop,88507,19,2,NJ,(945) 917-3046
Lumberyard Brewing Company,Pittsburgh,Doib Center,11104,16,3,NY,(683) 627-2213
Uinta Brewing Company,New York,Gopiv Key,93411,16,1,MA,(882) 742-6569
Four Peaks Brewing Company,Quincy,Rewgov Ridge,64878,18,4,PA,(828) 258-9270
Martin House Brewing Company,Pittsburgh,Selo Junction,64045,17,3,NY,(866) 539-7296
Right Brain Brewery,Quincy,Koleg Square,20794,15,2,PA,(858) 862-2671
Sly Fox Brewing Company,Boston,Agke Drive,64040,15,1,PA,(574) 604-6666
Round Guys Brewing,Pittsburgh,Taew Extension,89216,15,4,NY,(759) 404-8002
Great Crescent Brewery,New York,Zuvoh Glen,93749,19,1,MA,(459) 450-6908
Oskar Blues Brewery,New York,Riro Way,6983,16,3,MA,(259) 671-1602
Boxcar Brewing Company,Pittsburgh,Fojas Court,97703,18,4,NY,(527) 736-7062
High Hops Brewery,Philadelphia,Pudhoz Ridge,69574,15,1,NY,(605) 446-9070
Crooked Fence Brewing Company,New York,Urso Park,91266,18,3,MA,(805) 412-7025
Everybody's Brewing,New York,Wedi Center,44193,15,4,MA,(721) 580-4691
Anderson Valley Brewing Company,New Brunswick,Zusgu Avenue,82843,15,4,NJ,(724) 947-4285
Fiddlehead Brewing Company,Quincy,Irnoj Parkway,78070,18,3,PA,(883) 583-2322
Evil Twin Brewing,Philadelphia,Oseof Mill,25135,16,4,NY,(621) 487-8818
New Orleans Lager & Ale Brewing ...,New Brunswick,Cemli Road,27038,15,2,NJ,(858) 637-3617
Spiteful Brewing Company,Newark,Widri Grove,81534,16,2,NJ,(638) 848-9343
Rahr & Sons Brewing Company,Boston,Algo Manor,14849,15,2,PA,(361) 624-7659
18th Street Brewery,Quincy,Bodus Highway,73256,16,1,PA,(263) 588-3726
Cambridge Brewing Company,New Brunswick,Jazofu Pike,89101,18,2,NJ,(503) 905-3051
Carolina Brewery,Albany,Uleus Avenue,66125,15,1,MA,(888) 821-6490
Frog Level Brewing Company,New York,Becdo Park,25870,19,4,MA,(656) 233-1790
Wild Wolf Brewing Company,Philadelphia,Afkic Junction,30263,17,1,NY,(417) 229-2066
COOP Ale Works,New York,Webak Terrace,94452,19,1,MA,(674) 377-4305
Seventh Son Brewing Company,Quincy,Jocmoc Terrace,22052,15,4,PA,(469) 224-8555
Oasis Texas Brewing Company,Quincy,Izopa Center,99115,15,2,PA,(585) 465-1228
Vander Mill Ciders,Philadelphia,Pesare Court,19695,16,1,NY,(418) 562-2520
St. Julian Winery,Newark,Izuni Path,58427,17,3,NJ,(268) 685-1054
Pedernales Brewing Company,Albany,Zabe Pike,41630,15,1,MA,(414) 923-5703
Mother's Brewing,Newark,Nilo Point,94300,16,4,NJ,(852) 225-5978
Modern Monks Brewery,New Brunswick,Darbaw Mill,22421,18,3,NJ,(617) 311-6573
Two Beers Brewing Company,Boston,Jeote Square,56671,18,2,PA,(370) 271-9053
Snake River Brewing Company,New York,Ogfu Glen,32435,16,1,MA,(226) 256-4680
Capital Brewery,Quincy,Tata Pike,23412,16,2,PA,(472) 726-7515
Anthem Brewing Company,New Brunswick,Lisja Loop,53577,16,1,NJ,(422) 868-9642
Goodlife Brewing Co.,Pittsburgh,Mudmo Heights,30561,16,3,NY,(820) 688-9967
Breakside Brewery,Albany,Unoto Pike,17809,16,3,MA,(587) 515-8804
Goose Island Brewery Company,Pittsburgh,Solja Extension,10526,15,4,NY,(882) 953-6334
Burnside Brewing Co.,Pittsburgh,Cucep Junction,76312,17,2,NY,(720) 693-5598
Hop Valley Brewing Company,Albany,Zobsuf Junction,32526,17,4,MA,(875) 644-4896
Worthy Brewing Company,Quincy,Ovto Pike,85904,19,3,PA,(431) 706-6280
Occidental Brewing Company,Albany,Kiiga Pass,93936,19,3,MA,(905) 739-7607
Fearless Brewing Company,New Brunswick,Ojigi River,18819,18,2,NJ,(359) 493-7182
Upland Brewing Company,New York,Vumkak Road,88629,16,1,MA,(479) 767-2353
Mehana Brewing Co.,Newark,Osso Heights,13027,18,3,NJ,(961) 291-4366
Hawai'i Nui Brewing Co.,Albany,Bufa View,91662,16,3,MA,(358) 509-8786
People's Brewing Company,Philadelphia,Riwo Turnpike,1005,15,3,NY,(761) 622-5708
Fort George Brewery,Pittsburgh,Ecdu Court,27323,16,4,NY,(671) 346-7196
Branchline Brewing Company,Quincy,Gokob River,97157,19,2,PA,(341) 711-5770
Kalona Brewing Company,Pittsburgh,Zebaf Ridge,16711,18,1,NY,(347) 591-4129
Modern Times Beer,New York,Kablen Highway,57858,15,2,MA,(745) 981-7740
Temperance Beer Company,Pittsburgh,Otoufu Path,54314,19,3,NY,(851) 208-9306
Wisconsin Brewing Company,Philadelphia,Leme Heights,18975,15,2,NY,(224) 204-9221
Crow Peak Brewing Company,New York,Manla Boulevard,60219,18,4,MA,(789) 455-3703
Grapevine Craft Brewery,New York,Okidi Path,86952,15,4,MA,(271) 429-2958
Buffalo Bayou Brewing Company,Albany,Natta Court,594,15,1,MA,(613) 641-1796
Texian Brewing Co.,Albany,Pifah Boulevard,13835,16,4,MA,(425) 745-1052
Orpheus Brewing,Quincy,Gizmov View,72814,17,4,PA,(911) 242-7896
Forgotten Boardwalk,Newark,Nelibu Loop,23535,17,3,NJ,(532) 530-1647
Laughing Dog Brewing Company,Albany,Wehce Manor,29287,17,3,MA,(685) 772-9171
Bozeman Brewing Company,Quincy,Udicig Road,13293,19,1,PA,(576) 227-1939
Big Choice Brewing,New Brunswick,Ahme Parkway,13930,18,3,NJ,(959) 921-1005
Big Storm Brewing Company,New York,Tiwuw Path,83065,19,1,MA,(905) 951-3133
Carton Brewing Company,Albany,Fapca Extension,22853,16,4,MA,(938) 821-9165
Midnight Sun Brewing Company,Pittsburgh,Liwe Extension,98136,19,2,NY,(973) 798-6385
Fat Head's Brewery,Pittsburgh,Polzi Heights,10386,18,3,NY,(373) 902-1355
Refuge Brewery,Quincy,Ikava Mill,29488,19,2,PA,(343) 939-2602
Chatham Brewing,Philadelphia,Fazej Path,52101,15,4,NY,(978) 379-2450
DC Brau Brewing Company,New Brunswick,Vabcug Avenue,52751,19,4,NJ,(608) 265-8365
Geneva Lake Brewing Company,Boston,Lukzes Place,68480,16,4,PA,(562) 680-1883
Rochester Mills Brewing Company,Philadelphia,Avatog Drive,30340,15,4,NY,(216) 920-1861
Cape Ann Brewing Company,Philadelphia,Zali Plaza,9593,16,2,NY,(962) 719-3468
Borderlands Brewing Company,New Brunswick,Puso Mill,61018,17,2,NJ,(480) 953-3409
College Street Brewhouse and Pub,New York,Moed Terrace,43291,17,4,MA,(510) 718-7559
Joseph James Brewing Company,Philadelphia,Nawwaj Circle,55781,15,1,NY,(802) 613-8543
Harpoon Brewery,Philadelphia,Kovcor Path,72308,19,4,NY,(812) 315-5906
Back East Brewing Company,New York,Ipebar Ridge,74834,15,3,MA,(921) 554-8068
Champion Brewing Company,Newark,Toddu Drive,2512,19,2,NJ,(521) 255-1206
Devil's Backbone Brewing Company,New Brunswick,Dewo Path,55849,19,3,NJ,(964) 536-9531
Newburgh Brewing Company,Philadelphia,Cehlir Circle,61264,17,1,NY,(258) 729-2076
Wiseacre Brewing Company,Newark,Wafdef Junction,87100,17,4,NJ,(862) 423-1847
Golden Road Brewing,Newark,Holrun Square,40489,19,2,NJ,(283) 354-2605
New Republic Brewing Company,Philadelphia,Taro Path,15348,16,1,NY,(876) 409-7573
Infamous Brewing Company,Newark,Bizu Trail,44741,15,2,NJ,(580) 698-6442
Two Henrys Brewing Company,Albany,Ibila Turnpike,83392,17,3,MA,(372) 677-8699
Lift Bridge Brewing Company,Pittsburgh,Huwi Key,52115,19,1,NY,(805) 733-3428
Lucky Town Brewing Company,New Brunswick,Cacsib Lane,15093,15,1,NJ,(845) 448-4968
Quest Brewing Company,Newark,Nerag Lane,43457,19,4,NJ,(557) 312-4770
Creature Comforts,Quincy,Tigez Square,23014,17,4,PA,(463) 781-2749
Half Full Brewery,Pittsburgh,Faema Avenue,83720,19,2,NY,(722) 431-6746
Southampton Publick House,Albany,Idato Turnpike,33936,16,4,MA,(700) 499-3531
Chapman's Brewing,Albany,Pocit Way,10107,19,3,MA,(411) 449-4621
Barrio Brewing Company,Philadelphia,Liuhe Glen,87473,18,3,NY,(631) 988-6440
Santa Cruz Mountain Brewing,Albany,Dahev View,45846,19,2,MA,(589) 553-6714
Frankenmuth Brewery,Philadelphia,Jezaz Drive,5538,18,1,NY,(721) 211-8967
Meckley's Cidery,Philadelphia,Fiacu Glen,92049,17,4,NY,(818) 753-1857
Stillwater Artisanal Ales,Quincy,Juav Square,28377,15,3,PA,(856) 443-6668
Finch's Beer Company,Pittsburgh,Taleg Trail,97089,16,2,NY,(263) 643-1130
South Austin Brewery,Albany,Miuf Ridge,83877,15,2,MA,(289) 282-9041
Bauhaus Brew Labs,Newark,Kutne Terrace,18704,15,2,NJ,(654) 281-2213
Ozark Beer Company,Quincy,Akpuw Drive,52251,15,3,PA,(653) 691-4168
Mountain Town Brewing Company ,Pittsburgh,Javoz Pass,32832,19,1,NY,(784) 858-9637
Otter Creek Brewing,Pittsburgh,Golwa View,97989,16,2,NY,(237) 430-5916
The Brewer's Art,Quincy,Weeki Street,91868,18,2,PA,(877) 848-3725
Denver Beer Company,Newark,Letof Parkway,79506,15,1,NJ,(613) 453-8444
Ska Brewing Company,Quincy,Upaafe Loop,91594,15,3,PA,(788) 359-6676
Tractor Brewing Company,Quincy,Medego Turnpike,76736,19,2,PA,(207) 898-6061
Peak Organic Brewing Company,New York,Beocu Circle,13304,16,3,MA,(850) 900-7676
Cape Cod Beer,Newark,Azno Pass,73709,17,1,NJ,(848) 708-9986
Long Trail Brewing Company,Philadelphia,Zubpe Boulevard,70513,16,1,NY,(503) 341-8516
Great Raft Brewing Company,New Brunswick,Dilap Road,30817,19,2,NJ,(400) 618-6795
Alaskan Brewing Company,Pittsburgh,Ehedu Parkway,57748,15,4,NY,(658) 997-1312
Notch Brewing Company,Philadelphia,Ezoge River,23374,16,3,NY,(403) 618-8549
The Alchemist,Philadelphia,Ulsav Turnpike,67769,19,4,NY,(444) 892-5900
Three Notch'd Brewing Company,New York,Wufic Grove,86809,18,2,MA,(338) 358-3671
Portside Brewery,Pittsburgh,Eneme Lane,36370,16,3,NY,(329) 650-2630
Otter Creek Brewing,New York,Woawi Junction,60838,17,2,MA,(503) 579-8818
Montauk Brewing Company,New Brunswick,Zojuf Plaza,99963,18,2,NJ,(910) 958-8414
Indeed Brewing Company,New Brunswick,Edij Road,31751,18,1,NJ,(719) 436-1571
Berkshire Brewing Company,Albany,Faig Lane,77404,15,3,MA,(854) 605-3291
Foolproof Brewing Company,New Brunswick,Bouzo Loop,9289,17,4,NJ,(900) 354-3214
Headlands Brewing Company,Newark,Zargo Glen,49342,18,2,NJ,(912) 581-3415
Bolero Snort Brewery,New York,Upef Path,67093,15,1,MA,(543) 573-2986
Thunderhead Brewing Company,Albany,Faak Court,78575,18,4,MA,(231) 496-9861
Defiance Brewing Company,Pittsburgh,Ufga Terrace,60108,19,2,NY,(334) 374-5188
Milwaukee Brewing Company,Philadelphia,Mabhih Ridge,5173,17,1,NY,(723) 772-5348
Catawba Island Brewing,Albany,Cocda Way,44332,15,3,MA,(876) 998-1999
Back Forty Beer Company,Philadelphia,Esorab River,85124,18,4,NY,(859) 282-8299
Four Corners Brewing Company,Pittsburgh,Hono Court,3901,15,3,NY,(971) 531-8377
Saint Archer Brewery,Philadelphia,Bifip Place,32549,19,1,NY,(518) 258-1874
Rogue Ales,New Brunswick,Tuki River,34260,15,2,NJ,(769) 339-1623
Hale's Ales,Newark,Sijcir Path,50284,18,3,NJ,(982) 261-1783
Tommyknocker Brewery,Quincy,Omava Court,70616,17,4,PA,(627) 374-1522
Baxter Brewing Company,Newark,Bovveh Avenue,49522,15,3,NJ,(719) 525-6570
Northampton Brewery,Newark,Tasci Terrace,86930,17,2,NJ,(907) 603-3996
Black Shirt Brewing Company,Pittsburgh,Gago Pike,41586,18,2,NY,(712) 969-7266
Wachusett Brewing Company,Albany,Pizop Key,49954,19,1,MA,(836) 395-4422
Widmer Brothers Brewing Company,Albany,Jocod Heights,11329,18,1,MA,(317) 730-2808
Hop Farm Brewing Company,Boston,Bibow Avenue,27755,15,3,PA,(478) 722-1962
Liquid Hero Brewery,Philadelphia,Ponoc Ridge,49945,15,1,NY,(933) 705-4428
Matt Brewing Company,Albany,Bamag Road,76906,16,4,MA,(537) 396-1305
Boston Beer Company,Boston,Suej Pass,62259,16,4,PA,(416) 584-6379
Old Forge Brewing Company,Boston,Ebori Road,19160,17,4,PA,(763) 612-5667
Utah Brewers Cooperative,Pittsburgh,Fofde Terrace,30759,16,3,NY,(255) 917-5462
Magic Hat Brewing Company,Boston,Suwov Road,19437,19,4,PA,(740) 559-4196
Blue Hills Brewery,Quincy,Canef River,83086,15,3,PA,(911) 515-3221
Night Shift Brewing,Boston,Desala Street,18092,17,1,PA,(751) 334-2657
Beach Brewing Company,Newark,Iwvo Junction,69362,17,2,NJ,(562) 387-2797
Payette Brewing Company,New York,Anuzub Center,52470,17,3,MA,(702) 292-8691
Brew Bus Brewing,Pittsburgh,Afeiw View,38615,16,3,NY,(618) 694-6490
Sockeye Brewing Company,Boston,Seiha Key,32348,16,2,PA,(889) 413-6372
Pine Street Brewery,New York,Zipvel Junction,92109,15,3,MA,(511) 670-8707
Dirty Bucket Brewing Company,Newark,Nuhvis Glen,33636,15,2,NJ,(937) 720-6183
Jackalope Brewing Company,Albany,Lofu View,30762,17,2,MA,(444) 537-7721
Slanted Rock Brewing Company,Newark,Cubwi Road,57306,17,3,NJ,(309) 990-6633
Piney River Brewing Company,New York,Utob Terrace,50076,15,4,MA,(947) 616-7496
Cutters Brewing Company,Philadelphia,Fosif Loop,87182,18,1,NY,(365) 415-6256
Iron Hill Brewery & Restaurant,New York,Anwek Parkway,12673,18,1,MA,(333) 218-9809
Marshall Wharf Brewing Company,New Brunswick,Miur Avenue,56634,18,1,NJ,(475) 445-7454
Banner Beer Company,New Brunswick,Cika Plaza,4219,17,2,NJ,(260) 779-9363
Dick's Brewing Company,Pittsburgh,Ucalug Heights,63393,17,2,NY,(287) 866-1187
Claremont Craft Ales,Albany,Batil Mill,35622,19,3,MA,(804) 505-9573
Rivertown Brewing Company,Newark,Pabun Extension,33338,19,3,NJ,(430) 779-6619
Voodoo Brewery,Boston,Pufmet Manor,5786,15,2,PA,(726) 408-2385
D.L. Geary Brewing Company,Boston,Fumwac Highway,51405,17,2,PA,(831) 974-1103
Pisgah Brewing Company,Philadelphia,Lohka Ridge,33454,19,4,NY,(417) 597-4623
Neshaminy Creek Brewing Company,Pittsburgh,Avovi Plaza,82681,15,4,NY,(642) 609-5841
Morgan Street Brewery,Newark,Tassic Loop,84924,17,2,NJ,(705) 379-7169
Half Acre Beer Company,Quincy,Rilow Highway,75691,15,4,PA,(553) 429-7758
The Just Beer Project,Pittsburgh,Muwne Lane,60376,15,3,NY,(445) 265-7666
The Bronx Brewery,Pittsburgh,Cubcap Grove,91540,15,3,NY,(726) 552-2574
Dead Armadillo Craft Brewing,Albany,Dubozi Center,85858,16,2,MA,(856) 823-5543
Catawba Brewing Company,Philadelphia,Bofet Highway,14152,17,4,NY,(966) 590-6172
La Cumbre Brewing Company,Albany,Mavut Way,2030,15,1,MA,(657) 811-3360
David's Ale Works,New Brunswick,Mabur Center,12209,17,1,NJ,(400) 745-7044
The Traveler Beer Company,Quincy,Bajpi Highway,73535,15,3,PA,(427) 707-8005
Fargo Brewing Company,New Brunswick,Pichon Pass,17788,17,2,NJ,(677) 433-1459
Big Sky Brewing Company,Boston,Wernu Point,16842,17,3,PA,(825) 835-6286
Nebraska Brewing Company,New York,Piji Ridge,7905,19,3,MA,(819) 507-1375
Uncle John's Fruit House Winery,New Brunswick,Fanebi Heights,67033,18,3,NJ,(863) 281-2233
Wormtown Brewery,Albany,Pisje Center,96147,18,1,MA,(215) 739-9165
Due South Brewing Company,Pittsburgh,Memuwa Pass,1306,15,3,NY,(583) 971-1112
Palisade Brewing Company,New Brunswick,Fekfa Way,97349,17,3,NJ,(545) 669-6564
KelSo Beer Company,Newark,Assu Circle,13012,19,1,NJ,(802) 827-4549
Hardywood Park Craft Brewery,Pittsburgh,Umeogu Heights,24403,15,4,NY,(826) 994-2495
Wolf Hills Brewing Company,Albany,Fusije Point,7975,15,3,MA,(545) 382-9529
Lavery Brewing Company,Quincy,Gujjur Turnpike,22763,19,3,PA,(224) 758-8435
Manzanita Brewing Company,Newark,Nulap Pass,70441,19,2,NJ,(787) 205-6303
Fullsteam Brewery,Boston,Tenti Street,76742,17,4,PA,(833) 496-1018
Four Horsemen Brewing Company,New York,Mapgi Center,73681,15,2,MA,(812) 616-7365
Hinterland Brewery,Philadelphia,Dufi Loop,9935,18,4,NY,(979) 423-8970
Central Coast Brewing Company,Philadelphia,Pami Path,79508,15,1,NY,(743) 827-9539
Westfield River Brewing Company,New Brunswick,Bili Pike,64847,17,4,NJ,(679) 936-4029
Elevator Brewing Company,Quincy,Zichu Loop,98751,16,4,PA,(540) 834-5581
Aslan Brewing Company,Albany,Awureb Heights,27947,17,1,MA,(429) 420-6281
Kulshan Brewery,New Brunswick,Hefdip Manor,87411,15,3,NJ,(378) 432-8605
Pikes Peak Brewing Company,Quincy,Fasjec Loop,26559,19,1,PA,(805) 600-5928
Manayunk Brewing Company,Boston,Icco Road,61967,19,2,PA,(937) 996-4653
Buckeye Brewing,Pittsburgh,Tenu Junction,77801,19,4,NY,(280) 714-2458
Daredevil Brewing Company,Philadelphia,Zohvo Place,60703,15,2,NY,(357) 378-7272
NoDa Brewing Company,Pittsburgh,Kajiw Loop,32332,17,4,NY,(760) 337-1675
Aviator Brewing Company,Quincy,Daje View,76960,15,1,PA,(964) 773-4350
Wild Onion Brewing Company,Albany,Zimu Way,77490,17,2,MA,(316) 212-1784
Hilliard's Beer,Newark,Luri Highway,22008,19,2,NJ,(428) 207-6858
Mikkeller,Quincy,Coso Heights,62687,16,4,PA,(241) 334-5481
Bohemian Brewery,Quincy,Moksi Glen,89341,17,2,PA,(430) 893-7651
Great River Brewery,New York,Baun Plaza,1513,16,3,MA,(906) 849-4443
Mustang Brewing Company,Albany,Kuup Extension,34762,17,3,MA,(526) 963-1991
Airways Brewing Company,Quincy,Bepe Pass,21002,19,1,PA,(501) 617-5306
21st Amendment Brewery,Quincy,Bigsaw Manor,77631,16,2,PA,(965) 960-2697
Eddyline Brewery & Restaurant,Newark,Efatu Manor,83302,15,3,NJ,(314) 847-7956
Pizza Port Brewing Company,New York,Wuvuv Street,96053,19,4,MA,(782) 616-4323
Sly Fox Brewing Company,Albany,Coem Loop,50111,17,3,MA,(856) 789-1111
Spring House Brewing Company,Philadelphia,Kineg Point,36831,17,4,NY,(587) 221-5423
7venth Sun,Albany,Ofjag Ridge,26731,17,1,MA,(631) 435-1611
Astoria Brewing Company,Boston,Ubuva Boulevard,66881,19,3,PA,(539) 600-4114
Maui Brewing Company,Boston,Jalfo Lane,85381,19,2,PA,(204) 214-8407
RoughTail Brewing Company,Quincy,Peseh Place,94326,17,1,PA,(476) 943-8612
Lucette Brewing Company,New Brunswick,Funwiw Square,52412,18,4,NJ,(306) 762-6289
Bold City Brewery,Philadelphia,Cawhu Point,27956,16,4,NY,(533) 915-9665
Grey Sail Brewing of Rhode Island,New Brunswick,Tije Pike,66270,19,2,NJ,(420) 769-3744
Blue Blood Brewing Company,Philadelphia,Acpu Point,69498,15,1,NY,(275) 221-9888
Swashbuckler Brewing Company,Newark,Bokfa View,98604,16,2,NJ,(444) 406-1835
Blue Mountain Brewery,New Brunswick,Dehuz Square,66012,18,2,NJ,(574) 369-5518
Starr Hill Brewery,Boston,Laeri View,25554,19,4,PA,(276) 740-9951
Westbrook Brewing Company,Newark,Akodi Center,52080,19,2,NJ,(341) 532-1066
Shipyard Brewing Company,New Brunswick,Dinuke Parkway,27087,15,3,NJ,(236) 806-7471
Revolution Brewing,Philadelphia,Natsun Way,52939,19,3,NY,(381) 243-3456
Natian Brewery,Boston,Jemlev Square,38739,16,2,PA,(749) 811-1741
Alltech's Lexington Brewing Company,New Brunswick,Venok Grove,27939,19,1,NJ,(904) 236-1259
Oskar Blues Brewery (North Carol...,New Brunswick,Azlel Terrace,90867,17,2,NJ,(854) 349-8966
Orlison Brewing Company,Pittsburgh,Rocza Highway,19501,19,1,NY,(803) 590-6337
Breckenridge Brewery,Quincy,Rapo Square,25386,19,4,PA,(624) 532-9809
Santa Fe Brewing Company,Newark,Ilomid Street,44683,16,3,NJ,(982) 929-3931
Miami Brewing Company,New Brunswick,Ipean View,16538,15,1,NJ,(281) 324-9468
Schilling & Company,New York,Elsiv Terrace,90897,16,1,MA,(842) 330-5149
Hops & Grain Brewery,Albany,Zica Key,56154,15,4,MA,(852) 577-1841
White Flame Brewing Company,Albany,Jeheta Street,14114,17,4,MA,(672) 443-7354
Ruhstaller Beer Company,Newark,Divneb Road,69004,17,3,NJ,(851) 665-8172
Saugatuck Brewing Company,New York,Kazhut Glen,2679,15,2,MA,(238) 371-1274
Moab Brewery,Quincy,Jutwu Glen,73976,17,3,PA,(874) 924-8797
Macon Beer Company,Albany,Uguib Point,34396,17,2,MA,(883) 968-6665
Amnesia Brewing Company,Philadelphia,Pitof Trail,98466,15,2,NY,(312) 214-3709
Wolverine State Brewing Company,Boston,Koave Park,34874,16,1,PA,(518) 255-4607
Red Tank Cider Company,Newark,Ubsom Way,58988,17,2,NJ,(819) 966-7119
Cascadia Ciderworks United,Newark,Ivze Extension,86341,17,4,NJ,(833) 380-8839
Fate Brewing Company,New Brunswick,Tolheh Junction,18928,15,4,NJ,(636) 541-7387
Lazy Monk Brewing,New York,Zoov Park,42726,19,2,MA,(383) 761-5100
Bitter Root Brewing,Pittsburgh,Bacwiw Circle,96735,15,2,NY,(659) 590-6370
10 Barrel Brewing Company,Quincy,Neba Extension,40422,15,4,PA,(352) 396-9144
Tamarack Brewing Company,Albany,Nefe Grove,62470,15,1,MA,(611) 912-1545
New England Brewing Company,Albany,Wadgin Turnpike,2926,19,1,MA,(905) 776-3927
Seattle Cider Company,New York,Raloz Terrace,36029,17,1,MA,(682) 476-6253
Straight to Ale,New Brunswick,Pegli Plaza,59945,15,4,NJ,(382) 268-2399
Austin Beerworks,Philadelphia,Luvan Way,93215,15,4,NY,(608) 658-8878
Blue Mountain Brewery,Newark,Josfot Grove,9131,18,2,NJ,(283) 874-7929
Coastal Empire Beer Company,Albany,Lejze Highway,19170,15,3,MA,(210) 243-8906
Jack's Hard Cider (Hauser Estate...,New Brunswick,Jaemo Turnpike,40613,15,2,NJ,(429) 286-5506
Boulder Beer Company,Quincy,Coal Turnpike,47681,17,4,PA,(940) 948-7511
Coalition Brewing Company,New Brunswick,Esotok Terrace,68282,19,4,NJ,(227) 456-6738
Sanitas Brewing Company,New Brunswick,Gogcid Plaza,18146,18,3,NJ,(604) 555-7166
Gore Range Brewery,Quincy,Udime Parkway,43614,17,4,PA,(404) 637-4329
Redstone Meadery,Newark,Dothi Court,19270,17,1,NJ,(207) 339-4684
Blue Dog Mead,Albany,Bewe Path,42593,16,3,MA,(257) 572-2267
Hess Brewing Company,Philadelphia,Vameg Pike,13661,19,4,NY,(850) 253-7529
Wynkoop Brewing Company,New York,Amokiv Lane,46016,19,4,MA,(400) 525-7309
Ciderboys,Pittsburgh,Dapke Court,28195,16,4,NY,(978) 617-4215
Armadillo Ale Works,Quincy,Kocmag Way,55899,15,1,PA,(778) 680-7055
Roanoke Railhouse Brewery,Boston,Nivso Way,24429,19,1,PA,(627) 785-7920
Schlafly Brewing Company,New York,Kigda Street,4200,19,4,MA,(360) 818-6094
Asher Brewing Company,Quincy,Pase Grove,87519,18,1,PA,(208) 639-6045
Lost Rhino Brewing Company,Pittsburgh,Jotpo Terrace,51140,15,1,NY,(818) 463-1854
North Country Brewing Company,Pittsburgh,Tomag Path,65998,16,3,NY,(500) 304-7781
Seabright Brewery,Newark,Fofa Circle,55927,18,3,NJ,(883) 325-3708
French Broad Brewery,Albany,Hihu River,98911,19,4,MA,(416) 361-4508
Angry Orchard Cider Company,Philadelphia,Kozpu Turnpike,22611,17,4,NY,(378) 393-7001
Two Roads Brewing Company,Pittsburgh,Tojja Mill,76020,19,1,NY,(830) 539-7690
Southern Oregon Brewing Company,Quincy,Camur Circle,39764,15,3,PA,(369) 472-1727
Brooklyn Brewery,Philadelphia,Aheboz Loop,84386,19,1,NY,(951) 544-2710
The Right Brain Brewery,New Brunswick,Sepul Court,19476,16,1,NJ,(559) 900-8955
Kona Brewing Company,Newark,Rezi Glen,35174,16,1,NJ,(611) 558-3457
MillKing It Productions,Newark,Coebi Lane,51479,18,2,NJ,(566) 282-9064
Pateros Creek Brewing Company,Boston,Sovu Lane,22961,17,3,PA,(511) 986-8260
O'Fallon Brewery,Pittsburgh,Cokca Boulevard,42717,18,4,NY,(359) 534-2831
Marble Brewery,Philadelphia,Gomol Mill,68959,18,3,NY,(352) 241-5774
Big Wood Brewery,New Brunswick,Iceze Road,61917,18,2,NJ,(984) 568-5876
Howard Brewing Company,Newark,Johe Trail,93635,16,4,NJ,(322) 801-3885
Downeast Cider House,New York,Herzur Road,12957,16,4,MA,(364) 942-5325
Swamp Head Brewery,Albany,Zacdaz View,32809,16,4,MA,(351) 219-3875
Mavericks Beer Company,Pittsburgh,Gettuf Point,37610,16,1,NY,(669) 289-5399
TailGate Beer,Pittsburgh,Wiav Pass,17015,16,2,NY,(952) 663-7103
Northwest Brewing Company,Boston,Iravog Square,62884,18,1,PA,(884) 953-8615
Dad & Dude's Breweria,Philadelphia,Paisa Highway,15917,15,1,NY,(836) 758-4078
Centennial Beer Company,Newark,Ledef Turnpike,84052,16,4,NJ,(878) 410-4890
Denali Brewing Company,Boston,Nacura Court,64077,17,4,PA,(256) 939-2728
Deschutes Brewery,Pittsburgh,Voceh Boulevard,36076,15,3,NY,(463) 519-4775
Sunken City Brewing Company,Quincy,Hazok Manor,61035,15,2,PA,(980) 884-4382
Lucette Brewing Company,Newark,Podiv Avenue,96965,17,3,NJ,(786) 541-2161
The Black Tooth Brewing Company,Newark,Adosol Highway,50992,19,3,NJ,(814) 235-2535
Kenai River Brewing Company,Pittsburgh,Fazno Lane,6683,19,3,NY,(203) 982-1379
River North Brewery,New Brunswick,Evedu Parkway,39917,18,3,NJ,(428) 410-9797
Fremont Brewing Company,Newark,Jojwa Place,42774,15,1,NJ,(486) 286-3436
Armstrong Brewing Company,New York,Higji Heights,5476,17,1,MA,(885) 799-8627
AC Golden Brewing Company,Philadelphia,Ciate Grove,78052,18,2,NY,(975) 534-6678
Big Bend Brewing Company,Quincy,Vubi Drive,20188,18,4,PA,(310) 938-7082
Good Life Brewing Company,Newark,Rebat Park,94250,18,4,NJ,(267) 417-6849
Engine 15 Brewing,Pittsburgh,Akeupe Parkway,43222,19,4,NY,(754) 489-9110
Green Room Brewing,Pittsburgh,Pati Extension,22549,18,1,NY,(632) 729-5461
Brindle Dog Brewing Company,Albany,Gorri Mill,5581,15,3,MA,(845) 761-5191
Peace Tree Brewing Company,New York,Muemo Key,29321,18,3,MA,(642) 380-4508
Terrapin Brewing Company,Boston,Sorfi Point,82656,17,3,PA,(558) 982-8576
Pete's Brewing Company,Quincy,Vasok Ridge,2778,16,4,PA,(214) 459-4709
Okoboji Brewing Company,Pittsburgh,Wule Manor,21755,17,2,NY,(828) 758-7057
Crystal Springs Brewing Company,Newark,Otjew Path,57801,17,4,NJ,(702) 737-1607
Engine House 9,Pittsburgh,Lufil Mill,34835,17,4,NY,(968) 983-9941
Tonka Beer Company,Pittsburgh,Gotow Heights,80259,15,4,NY,(919) 652-6980
Red Hare Brewing Company,Pittsburgh,Feme Point,93550,16,1,NY,(427) 758-1323
Hangar 24 Craft Brewery,Quincy,Irug Point,25646,17,1,PA,(746) 239-4850
Big Elm Brewing,Pittsburgh,Wikad Road,85908,17,4,NY,(975) 729-4602
Good People Brewing Company,Quincy,Zuwha Highway,68711,17,4,PA,(474) 881-4825
Heavy Seas Beer,Albany,Zuob Highway,6850,15,2,MA,(521) 465-5264
Telluride Brewing Company,New York,Jipi Path,14621,19,4,MA,(824) 402-6078
7 Seas Brewing Company,Quincy,Saca Glen,24742,17,3,PA,(542) 312-2623
Confluence Brewing Company,New Brunswick,Mudgap Drive,50129,17,3,NJ,(777) 917-5556
Bale Breaker Brewing Company,Quincy,Fakoni Plaza,74809,19,1,PA,(312) 879-7270
The Manhattan Brewing Company,Newark,Wegim Place,63165,19,3,NJ,(834) 584-5741
MacTarnahans Brewing Company,New Brunswick,Muwic River,42106,15,4,NJ,(774) 615-1228
Stillmank Beer Company,Newark,Gaho Lane,29600,16,1,NJ,(750) 523-8981
Redhook Brewery,Albany,Mopnuh Parkway,90576,17,1,MA,(237) 419-3952
Dock Street Brewery,New Brunswick,Veuw Center,20464,18,2,NJ,(964) 706-9305
Blue Point Brewing Company,Newark,Goki Road,85882,17,4,NJ,(484) 463-6297
Tampa Bay Brewing Company,Pittsburgh,Mepzet Pike,55203,16,1,NY,(464) 848-5171
Devil's Canyon Brewery,Albany,Jonof Street,71235,17,1,MA,(421) 376-3835
Stone Coast Brewing Company,Albany,Nikme Center,95037,17,4,MA,(444) 226-1791
Broken Tooth Brewing Company,Newark,Tucof Street,26121,19,1,NJ,(239) 750-6134
Seven Brides Brewery,Philadelphia,Polbic View,84123,18,4,NY,(886) 336-7592
Newburyport Brewing Company,Pittsburgh,Owcer Boulevard,30770,18,1,NY,(475) 912-5823
Dry Dock Brewing Company,Newark,Akote Key,80758,17,1,NJ,(436) 961-3289
Cans Bar and Canteen,New York,Durdik Point,35346,18,2,MA,(301) 614-1228
Sprecher Brewing Company,New Brunswick,Hepham Parkway,67890,19,2,NJ,(719) 662-1442
Wildwood Brewing Company,Pittsburgh,Abom Court,55541,18,4,NY,(489) 894-1397
High Noon Saloon And Brewery,New York,Ocalew Circle,98438,19,1,MA,(765) 669-2640
Woodchuck Hard Cider,Boston,Pazzo Heights,42387,16,4,PA,(723) 990-1080
Sea Dog Brewing Company,Newark,Zafi Manor,6977,15,2,NJ,(237) 526-3575
Oskar Blues Brewery,Albany,Ukemar Glen,81464,18,2,MA,(327) 985-3090
Carolina Beer & Beverage,New Brunswick,Dowzi Plaza,75113,18,1,NJ,(465) 742-8162
Krebs Brewing Company (Pete's Pl...,New Brunswick,Igacuv Extension,47728,19,1,NJ,(662) 353-1246
Warbird Brewing Company,Quincy,Wodo Plaza,98320,17,2,PA,(525) 753-8162
Mudshark Brewing Company,New Brunswick,Fazeg Square,80895,15,2,NJ,(708) 222-6896
Spilker Ales,Newark,Kazi Place,60973,15,1,NJ,(569) 761-1864
Wingman Brewers,Pittsburgh,Pihi Highway,82796,18,2,NY,(305) 219-6841
Kettle House Brewing Company,Newark,Pefid Parkway,65221,15,3,NJ,(979) 749-4799
Sherwood Forest Brewers,Pittsburgh,Ikek Turnpike,3336,18,4,NY,(217) 772-8561
Cottrell Brewing,New Brunswick,Paclin Parkway,6850,15,4,NJ,(301) 653-8220
Arctic Craft Brewery,Newark,Ehtam Extension,58272,16,2,NJ,(258) 456-2047
Monkey Paw Pub & Brewery,New Brunswick,Lemok Court,39235,16,3,NJ,(962) 805-1545
Crabtree Brewing Company,Albany,Bepra Path,60531,17,3,MA,(468) 225-1424
Emerald City Beer Company,Pittsburgh,Lazze Plaza,91411,16,1,NY,(300) 407-6517
Butcher's Brewing,Albany,Bapij Plaza,66880,15,1,MA,(685) 238-6657
New South Brewing Company,Newark,Utoid Place,27572,15,1,NJ,(265) 233-6456
Big River Brewing Company,Pittsburgh,Puzval Street,97325,17,3,NY,(989) 850-6817
Twisted Pine Brewing Company,Philadelphia,Gemzi Circle,1880,19,1,NY,(203) 299-6084
Flying Dog Brewery,Boston,Cowif Place,51103,18,3,PA,(788) 957-4277
Uncommon Brewers,Albany,Socwiz Highway,19242,16,2,MA,(777) 950-8120
Aspen Brewing Company,New Brunswick,Pefoci Point,7876,18,3,NJ,(528) 270-3094
Triangle Brewing Company,Quincy,Erurot Turnpike,92793,15,4,PA,(472) 529-6027
Bomb Beer Company,Newark,Kedev Extension,22678,16,4,NJ,(806) 380-6646
Churchkey Can Company,Boston,Duwew View,28204,16,2,PA,(243) 707-6565
Intuition Ale Works,New York,Kawhow Court,20552,18,1,MA,(736) 847-1858
Asheville Brewing Company,New York,Awita Ridge,51460,15,1,MA,(960) 237-6105
Northwoods Brewpub,Albany,Gugol Drive,13662,18,3,MA,(459) 518-3307
Buckbean Brewing Company,Newark,Wusca Street,53229,15,3,NJ,(647) 260-4626
Dolores River Brewery,New York,Ormo Lane,31027,17,2,MA,(945) 513-4311
Flat Rock Brewing Company,Boston,Ratru Trail,78924,19,2,PA,(473) 527-5465
Abita Brewing Company,Boston,Mullal Trail,65148,18,1,PA,(536) 946-7159
Mammoth Brewing Company,Boston,Sazitu Highway,73784,16,1,PA,(319) 729-3130
Harvest Moon Brewing Company,New Brunswick,Haoko Highway,6361,17,3,NJ,(234) 781-5104
Grand Canyon Brewing Company,Pittsburgh,Avozo Terrace,67931,15,4,NY,(325) 461-2689
Lewis and Clark Brewing Company,Albany,Obihu Point,23440,17,4,MA,(306) 235-1417
Dundee Brewing Company,Philadelphia,Tinzin Loop,40196,16,3,NY,(751) 869-7786
Twin Lakes Brewing Company,Albany,Jigug Pass,55304,17,1,MA,(631) 492-8035
Mother Earth Brewing Company,Pittsburgh,Gojik View,63553,19,4,NY,(931) 277-2045
Arcadia Brewing Company,Pittsburgh,Boglat View,37276,16,4,NY,(480) 861-4461
Angry Minnow Brewing Company,Albany,Ewujoj Place,81748,15,3,MA,(581) 845-7335
Great Northern Brewing Company,Boston,Weaf River,43356,16,1,PA,(854) 752-8554
Pyramid Breweries,Newark,Zuja Place,42769,18,4,NJ,(438) 645-3822
Lancaster Brewing Company,Quincy,Abekuf Boulevard,80457,19,2,PA,(689) 563-1887
Upstate Brewing Company,New York,Wiefi Drive,39105,16,3,MA,(383) 474-6859
Moat Mountain Smoke House & Brew...,Newark,Mubev Way,51919,18,1,NJ,(663) 612-7295
Prescott Brewing Company,New York,Koeme Parkway,74640,15,2,MA,(771) 514-4610
Mogollon Brewing Company,Boston,Felcer Lane,48611,15,3,PA,(806) 746-2950
Wind River Brewing Company,Boston,Bauh Highway,91567,15,3,PA,(978) 756-4815
Silverton Brewery,Newark,Jete Loop,13682,15,3,NJ,(314) 549-9455
Mickey Finn's Brewery,Albany,Norru Highway,66773,18,2,MA,(620) 408-1405
Covington Brewhouse,New York,Jamu Loop,951,16,2,MA,(709) 769-9390
Dave's Brewfarm,Pittsburgh,Vabe Street,57006,17,3,NY,(859) 450-4906
Ukiah Brewing Company,Philadelphia,Soar Point,53878,19,2,NY,(322) 209-1800
Butternuts Beer and Ale,Quincy,Orewi Turnpike,76472,19,2,PA,(570) 675-4609
Sleeping Lady Brewing Company,Pittsburgh,Lahiw Circle,62438,18,3,NY,(988) 406-7455
